INTELSAT 23 (IS-23)     
1 38867U 12057A   26063.08030776 -.00000297  00000+0  00000+0 0  9992
2 38867   0.0547 264.5999 0001197  73.1512 159.9952  1.00272582 48909
FM-6                    
1 39360U 13058A   26063.13399425 -.00000029  00000+0  00000+0 0  9991
2 39360   0.0222 128.9923 0002894  53.3091 271.6263  1.00268989 45017
INTELSAT 30 (IS-30)     
1 40271U 14062A   26063.18586576 -.00000163  00000+0  00000+0 0  9999
2 40271   0.0157  83.0179 0001232  24.5340  26.2462  1.00271005  5747
DIRECTV 14              
1 40333U 14078B   26063.13737425 -.00000139  00000+0  00000+0 0  9994
2 40333   0.0192 122.5025 0000390  81.5378 268.0591  1.00279860 40994
DIRECTV 15              
1 40663U 15026A   26063.13659425 -.00000115  00000+0  00000+0 0  9991
2 40663   0.0192 105.9746 0000710 113.6790 248.5281  1.00271127 39418
SKY MEXICO-1            
1 40664U 15026B   26063.18030810 -.00000246  00000+0  00000+0 0  9993
2 40664   0.0206 130.1449 0002253 232.9838 144.9078  1.00269806 39400
INTELSAT 34 (IS-34)     
1 40874U 15039A   26063.07471397 -.00000298  00000+0  00000+0 0  9994
2 40874   0.0313 274.6635 0000046 265.3212 313.2465  1.00270863 38570
INTELSAT 31 (IS-31)     
1 41581U 16035A   26062.56766063 -.00000165  00000+0  00000+0 0  9990
2 41581   0.0397 252.5846 0001912 338.6854  39.3589  1.00271002 35628
INTELSAT 36 (IS-36)     
1 41747U 16053A   26063.09924076  .00000000  00000+0  00000+0 0  9990
2 41747   0.0219 121.5610 0001173 212.7088 291.8246  1.00268708 34903
INTELSAT 32E (IS-32E)   
1 41945U 17007B   26063.08030776 -.00000282  00000+0  00000+0 0  9997
2 41945   0.0179 125.6226 0000400 137.7770 244.1492  1.00269703 33170
INTELSAT 35E (IS-35E)   
1 42818U 17041A   26063.15011431 -.00000251  00000+0  00000+0 0  9996
2 42818   0.0300 249.2869 0002238  93.2262 198.9033  1.00271073 31768
INTELSAT 37E (IS-37E)   
1 42950U 17059A   26063.15340767  .00000000  00000+0  00000+0 0  9990
2 42950   0.0264 149.1962 0002175 198.1831 211.7709  1.00269268 31018
AZERSPACE 2 (IS-38)     
1 43632U 18074A   26063.09464740  .00000000  00000+0  00000+0 0  9997
2 43632   0.0253 148.0087 0001459 207.5851 245.4486  1.00270354 27391
HORIZONS-3E             
1 43633U 18074B   26063.11917419 -.00000044  00000+0  00000+0 0  9996
2 43633   0.0145 327.1223 0000589   5.1214  41.4976  1.00271713 27288
AT&T T-16               
1 44333U 19034A   26063.13702759 -.00000127  00000+0  00000+0 0  9994
2 44333   0.0251  99.8762 0000607  64.1156 306.3401  1.00270848 24580
INTELSAT 39 (IS-39)     
1 44476U 19049B   26063.09794074  .00000000  00000+0  00000+0 0  9993
2 44476   0.0248 154.4151 0000656 355.4372 109.2101  1.00269070 24070
GALAXY 30 (G-30)        
1 46114U 20056C   26063.13226090  .00000024  00000+0  00000+0 0  9993
2 46114   0.0148 121.4053 0002190 221.5134 101.5622  1.00272642 20235
