[{"OBJECT_NAME":"INTELSAT 23 (IS-23)","OBJECT_ID":"2012-057A","EPOCH":"2026-03-04T01:55:38.590464","MEAN_MOTION":1.00272582,"ECCENTRICITY":0.0001197,"INCLINATION":0.0547,"RA_OF_ASC_NODE":264.5999,"ARG_OF_PERICENTER":73.1512,"MEAN_ANOMALY":159.9952,"EPHEMERIS_TYPE":0,"CLASSIFICATION_TYPE":"U","NORAD_CAT_ID":38867,"ELEMENT_SET_NO":999,"REV_AT_EPOCH":4890,"BSTAR":0,"MEAN_MOTION_DOT":-2.97e-6,"MEAN_MOTION_DDOT":0},{"OBJECT_NAME":"FM-6","OBJECT_ID":"2013-058A","EPOCH":"2026-03-04T03:12:57.103200","MEAN_MOTION":1.00268989,"ECCENTRICITY":0.0002894,"INCLINATION":0.0222,"RA_OF_ASC_NODE":128.9923,"ARG_OF_PERICENTER":53.3091,"MEAN_ANOMALY":271.6263,"EPHEMERIS_TYPE":0,"CLASSIFICATION_TYPE":"U","NORAD_CAT_ID":39360,"ELEMENT_SET_NO":999,"REV_AT_EPOCH":4501,"BSTAR":0,"MEAN_MOTION_DOT":-2.9e-7,"MEAN_MOTION_DDOT":0},{"OBJECT_NAME":"INTELSAT 30 (IS-30)","OBJECT_ID":"2014-062A","EPOCH":"2026-03-04T04:27:38.801664","MEAN_MOTION":1.00271005,"ECCENTRICITY":0.0001232,"INCLINATION":0.0157,"RA_OF_ASC_NODE":83.0179,"ARG_OF_PERICENTER":24.534,"MEAN_ANOMALY":26.2462,"EPHEMERIS_TYPE":0,"CLASSIFICATION_TYPE":"U","NORAD_CAT_ID":40271,"ELEMENT_SET_NO":999,"REV_AT_EPOCH":574,"BSTAR":0,"MEAN_MOTION_DOT":-1.63e-6,"MEAN_MOTION_DDOT":0},{"OBJECT_NAME":"DIRECTV 14","OBJECT_ID":"2014-078B","EPOCH":"2026-03-04T03:17:49.135200","MEAN_MOTION":1.0027986,"ECCENTRICITY":3.9e-5,"INCLINATION":0.0192,"RA_OF_ASC_NODE":122.5025,"ARG_OF_PERICENTER":81.5378,"MEAN_ANOMALY":268.0591,"EPHEMERIS_TYPE":0,"CLASSIFICATION_TYPE":"U","NORAD_CAT_ID":40333,"ELEMENT_SET_NO":999,"REV_AT_EPOCH":4099,"BSTAR":0,"MEAN_MOTION_DOT":-1.39e-6,"MEAN_MOTION_DDOT":0},{"OBJECT_NAME":"DIRECTV 15","OBJECT_ID":"2015-026A","EPOCH":"2026-03-04T03:16:41.743200","MEAN_MOTION":1.00271127,"ECCENTRICITY":7.1e-5,"INCLINATION":0.0192,"RA_OF_ASC_NODE":105.9746,"ARG_OF_PERICENTER":113.679,"MEAN_ANOMALY":248.5281,"EPHEMERIS_TYPE":0,"CLASSIFICATION_TYPE":"U","NORAD_CAT_ID":40663,"ELEMENT_SET_NO":999,"REV_AT_EPOCH":3941,"BSTAR":0,"MEAN_MOTION_DOT":-1.15e-6,"MEAN_MOTION_DDOT":0},{"OBJECT_NAME":"SKY MEXICO-1","OBJECT_ID":"2015-026B","EPOCH":"2026-03-04T04:19:38.619840","MEAN_MOTION":1.00269806,"ECCENTRICITY":0.0002253,"INCLINATION":0.0206,"RA_OF_ASC_NODE":130.1449,"ARG_OF_PERICENTER":232.9838,"MEAN_ANOMALY":144.9078,"EPHEMERIS_TYPE":0,"CLASSIFICATION_TYPE":"U","NORAD_CAT_ID":40664,"ELEMENT_SET_NO":999,"REV_AT_EPOCH":3940,"BSTAR":0,"MEAN_MOTION_DOT":-2.46e-6,"MEAN_MOTION_DDOT":0},{"OBJECT_NAME":"INTELSAT 34 (IS-34)","OBJECT_ID":"2015-039A","EPOCH":"2026-03-04T01:47:35.287008","MEAN_MOTION":1.00270863,"ECCENTRICITY":4.6e-6,"INCLINATION":0.0313,"RA_OF_ASC_NODE":274.6635,"ARG_OF_PERICENTER":265.3212,"MEAN_ANOMALY":313.2465,"EPHEMERIS_TYPE":0,"CLASSIFICATION_TYPE":"U","NORAD_CAT_ID":40874,"ELEMENT_SET_NO":999,"REV_AT_EPOCH":3857,"BSTAR":0,"MEAN_MOTION_DOT":-2.98e-6,"MEAN_MOTION_DDOT":0},{"OBJECT_NAME":"INTELSAT 31 (IS-31)","OBJECT_ID":"2016-035A","EPOCH":"2026-03-03T13:37:25.878432","MEAN_MOTION":1.00271002,"ECCENTRICITY":0.0001912,"INCLINATION":0.0397,"RA_OF_ASC_NODE":252.5846,"ARG_OF_PERICENTER":338.6854,"MEAN_ANOMALY":39.3589,"EPHEMERIS_TYPE":0,"CLASSIFICATION_TYPE":"U","NORAD_CAT_ID":41581,"ELEMENT_SET_NO":999,"REV_AT_EPOCH":3562,"BSTAR":0,"MEAN_MOTION_DOT":-1.65e-6,"MEAN_MOTION_DDOT":0},{"OBJECT_NAME":"INTELSAT 36 (IS-36)","OBJECT_ID":"2016-053A","EPOCH":"2026-03-04T02:22:54.401664","MEAN_MOTION":1.00268708,"ECCENTRICITY":0.0001173,"INCLINATION":0.0219,"RA_OF_ASC_NODE":121.561,"ARG_OF_PERICENTER":212.7088,"MEAN_ANOMALY":291.8246,"EPHEMERIS_TYPE":0,"CLASSIFICATION_TYPE":"U","NORAD_CAT_ID":41747,"ELEMENT_SET_NO":999,"REV_AT_EPOCH":3490,"BSTAR":0,"MEAN_MOTION_DOT":0,"MEAN_MOTION_DDOT":0},{"OBJECT_NAME":"INTELSAT 32E (IS-32E)","OBJECT_ID":"2017-007B","EPOCH":"2026-03-04T01:55:38.590464","MEAN_MOTION":1.00269703,"ECCENTRICITY":4.0e-5,"INCLINATION":0.0179,"RA_OF_ASC_NODE":125.6226,"ARG_OF_PERICENTER":137.777,"MEAN_ANOMALY":244.1492,"EPHEMERIS_TYPE":0,"CLASSIFICATION_TYPE":"U","NORAD_CAT_ID":41945,"ELEMENT_SET_NO":999,"REV_AT_EPOCH":3317,"BSTAR":0,"MEAN_MOTION_DOT":-2.82e-6,"MEAN_MOTION_DDOT":0},{"OBJECT_NAME":"INTELSAT 35E (IS-35E)","OBJECT_ID":"2017-041A","EPOCH":"2026-03-04T03:36:09.876384","MEAN_MOTION":1.00271073,"ECCENTRICITY":0.0002238,"INCLINATION":0.03,"RA_OF_ASC_NODE":249.2869,"ARG_OF_PERICENTER":93.2262,"MEAN_ANOMALY":198.9033,"EPHEMERIS_TYPE":0,"CLASSIFICATION_TYPE":"U","NORAD_CAT_ID":42818,"ELEMENT_SET_NO":999,"REV_AT_EPOCH":3176,"BSTAR":0,"MEAN_MOTION_DOT":-2.51e-6,"MEAN_MOTION_DDOT":0},{"OBJECT_NAME":"INTELSAT 37E (IS-37E)","OBJECT_ID":"2017-059A","EPOCH":"2026-03-04T03:40:54.422688","MEAN_MOTION":1.00269268,"ECCENTRICITY":0.0002175,"INCLINATION":0.0264,"RA_OF_ASC_NODE":149.1962,"ARG_OF_PERICENTER":198.1831,"MEAN_ANOMALY":211.7709,"EPHEMERIS_TYPE":0,"CLASSIFICATION_TYPE":"U","NORAD_CAT_ID":42950,"ELEMENT_SET_NO":999,"REV_AT_EPOCH":3101,"BSTAR":0,"MEAN_MOTION_DOT":0,"MEAN_MOTION_DDOT":0},{"OBJECT_NAME":"AZERSPACE 2 (IS-38)","OBJECT_ID":"2018-074A","EPOCH":"2026-03-04T02:16:17.535360","MEAN_MOTION":1.00270354,"ECCENTRICITY":0.0001459,"INCLINATION":0.0253,"RA_OF_ASC_NODE":148.0087,"ARG_OF_PERICENTER":207.5851,"MEAN_ANOMALY":245.4486,"EPHEMERIS_TYPE":0,"CLASSIFICATION_TYPE":"U","NORAD_CAT_ID":43632,"ELEMENT_SET_NO":999,"REV_AT_EPOCH":2739,"BSTAR":0,"MEAN_MOTION_DOT":0,"MEAN_MOTION_DDOT":0},{"OBJECT_NAME":"HORIZONS-3E","OBJECT_ID":"2018-074B","EPOCH":"2026-03-04T02:51:36.650016","MEAN_MOTION":1.00271713,"ECCENTRICITY":5.89e-5,"INCLINATION":0.0145,"RA_OF_ASC_NODE":327.1223,"ARG_OF_PERICENTER":5.1214,"MEAN_ANOMALY":41.4976,"EPHEMERIS_TYPE":0,"CLASSIFICATION_TYPE":"U","NORAD_CAT_ID":43633,"ELEMENT_SET_NO":999,"REV_AT_EPOCH":2728,"BSTAR":0,"MEAN_MOTION_DOT":-4.4e-7,"MEAN_MOTION_DDOT":0},{"OBJECT_NAME":"AT&T T-16","OBJECT_ID":"2019-034A","EPOCH":"2026-03-04T03:17:19.183776","MEAN_MOTION":1.00270848,"ECCENTRICITY":6.07e-5,"INCLINATION":0.0251,"RA_OF_ASC_NODE":99.8762,"ARG_OF_PERICENTER":64.1156,"MEAN_ANOMALY":306.3401,"EPHEMERIS_TYPE":0,"CLASSIFICATION_TYPE":"U","NORAD_CAT_ID":44333,"ELEMENT_SET_NO":999,"REV_AT_EPOCH":2458,"BSTAR":0,"MEAN_MOTION_DOT":-1.27e-6,"MEAN_MOTION_DDOT":0},{"OBJECT_NAME":"INTELSAT 39 (IS-39)","OBJECT_ID":"2019-049B","EPOCH":"2026-03-04T02:21:02.079936","MEAN_MOTION":1.0026907,"ECCENTRICITY":6.56e-5,"INCLINATION":0.0248,"RA_OF_ASC_NODE":154.4151,"ARG_OF_PERICENTER":355.4372,"MEAN_ANOMALY":109.2101,"EPHEMERIS_TYPE":0,"CLASSIFICATION_TYPE":"U","NORAD_CAT_ID":44476,"ELEMENT_SET_NO":999,"REV_AT_EPOCH":2407,"BSTAR":0,"MEAN_MOTION_DOT":0,"MEAN_MOTION_DDOT":0},{"OBJECT_NAME":"GALAXY 30 (G-30)","OBJECT_ID":"2020-056C","EPOCH":"2026-03-04T03:10:27.341760","MEAN_MOTION":1.00272642,"ECCENTRICITY":0.000219,"INCLINATION":0.0148,"RA_OF_ASC_NODE":121.4053,"ARG_OF_PERICENTER":221.5134,"MEAN_ANOMALY":101.5622,"EPHEMERIS_TYPE":0,"CLASSIFICATION_TYPE":"U","NORAD_CAT_ID":46114,"ELEMENT_SET_NO":999,"REV_AT_EPOCH":2023,"BSTAR":0,"MEAN_MOTION_DOT":2.4e-7,"MEAN_MOTION_DDOT":0}]
